NORAD_CAT_ID,OBJECT_NAME,OBJECT_TYPE,EPOCH,MEAN_MOTION,ECCENTRICITY,INCLINATION,RA_OF_ASC_NODE,ARG_OF_PERICENTER,MEAN_ANOMALY,BSTAR,MEAN_MOTION_DOT,MEAN_MOTION_DDOT,TLE_LINE0,TLE_LINE1,TLE_LINE2,SEMIMAJOR_AXIS,PERIOD,APOGEE,PERIGEE,DECAYED
53260.0,STARLINK-4136,PAYLOAD,2022-10-11 14:00:01,15.08733004,0.0001709,53.2176,23.6154,58.0059,18.8627,0.010236,0.00165996,0.0,0 STARLINK-4136,1 53260U 22086U   22284.58334491  .00165996  00000-0  10236-1 0  9998,2 53260  53.2176  23.6154 0001709  58.0059  18.8627 15.08733004  1304,6918.206999999999,95.444,541.255,538.89,0.0
53260.0,STARLINK-4136,PAYLOAD,2022-10-11 22:00:00,15.08851591,0.0001533,53.2171,22.1246,53.9796,34.3996,-0.0034856,-0.00055353,0.0,0 STARLINK-4136,1 53260U 22086U   22284.91667824 -.00055353  00000-0 -34856-2 0  9996,2 53260  53.2171  22.1246 0001533  53.9796  34.3996 15.08851591  1306,6917.845,95.437,540.77,538.649,0.0
53260.0,STARLINK-4136,PAYLOAD,2022-10-12 06:00:00,15.08814915,0.0001506999999999,53.2171,20.626,61.5316,38.4363,0.0033433,0.00053286,0.0,0 STARLINK-4136,1 53260U 22086U   22285.25001157  .00053286  00000-0  33433-2 0  9996,2 53260  53.2171  20.6260 0001507  61.5316  38.4363 15.08814915 13012,6917.956999999999,95.439,540.865,538.78,0.0
53260.0,STARLINK-4136,PAYLOAD,2022-10-12 14:00:01,15.08842562,0.0001558,53.2173,19.1295,56.6838,54.8739,0.0016602,0.00026235,0.0,0 STARLINK-4136,1 53260U 22086U   22285.58334491  .00026235  00000-0  16602-2 0  9995,2 53260  53.2173  19.1295 0001558  56.6838  54.8739 15.08842562  1302,6917.873000000001,95.437,540.815,538.66,0.0
53260.0,STARLINK-4136,PAYLOAD,2022-10-12 22:00:00,15.08867372,0.0001274,53.2171,17.6297,60.9381,62.2314,-0.0029458,-0.000469,0.0,0 STARLINK-4136,1 53260U 22086U   22285.91667824 -.00046900  00000-0 -29458-2 0  9997,2 53260  53.2171  17.6297 0001274  60.9381  62.2314 15.08867372 13111,6917.797,95.436,540.543,538.78,0.0
53260.0,STARLINK-4136,PAYLOAD,2022-10-13 14:00:01,15.0895875,0.0001578,53.2175,14.6384,54.1243,92.1693,-0.010536,-0.00164695,0.0,0 STARLINK-4136,1 53260U 22086U   22286.58334491 -.00164695  00000-0 -10536-1 0  9990,2 53260  53.2175  14.6384 0001578  54.1243  92.1693 15.08958750  1309,6917.517,95.43,540.474,538.2909999999998,0.0
53260.0,STARLINK-4136,PAYLOAD,2022-10-13 20:00:01,15.08836343,0.0001541,53.2173,13.5135,49.6981,15.4299,3.2013e-05,2.21e-06,0.0,0 STARLINK-4136,1 53260U 22086U   22286.83335648  .00000221  00000-0  32013-4 0  9992,2 53260  53.2173  13.5135 0001541  49.6981  15.4299 15.08836343 13257,6917.892,95.438,540.823,538.691,0.0
53260.0,STARLINK-4136,PAYLOAD,2022-10-13 22:00:00,15.08837473,0.0001534,53.2174,13.1387,51.9073,106.0557,-8.248399999999999e-05,-1.6e-05,0.0,0 STARLINK-4136,1 53260U 22086U   22286.91667824 -.00001600  00000-0 -82484-4 0  9996,2 53260  53.2174  13.1387 0001534  51.9073 106.0557 15.08837473  1305,6917.888000000001,95.438,540.814,538.692,0.0
53260.0,STARLINK-4136,PAYLOAD,2022-10-14 14:00:01,15.08822047,0.0001521999999999,53.2174,10.1486,44.837,136.317,0.0013874,0.00021851,0.0,0 STARLINK-4136,1 53260U 22086U   22287.58334491  .00021851  00000-0  13874-2 0  9994,2 53260  53.2174  10.1486 0001522  44.8370 136.3170 15.08822047  1308,6917.935,95.439,540.8530000000002,538.747,0.0
53260.0,STARLINK-4136,PAYLOAD,2022-10-14 20:00:01,15.08837139,0.0001499,53.2173,9.0241,41.3658,58.4757,-3.269e-05,-8.08e-06,0.0,0 STARLINK-4136,1 53260U 22086U   22287.83334491 -.00000808  00000-0 -32690-4 0  9992,2 53260  53.2173   9.0241 0001499  41.3658  58.4757 15.08837139  1300,6917.889,95.438,540.7909999999998,538.717,0.0
53260.0,STARLINK-4136,PAYLOAD,2022-10-15 06:00:00,15.08854076,0.0001541,53.2169,7.154,55.4971,148.8248,-0.0015785,-0.00025332,0.0,0 STARLINK-4136,1 53260U 22086U   22288.25001157 -.00025332  00000-0 -15785-2 0  9992,2 53260  53.2169   7.1540 0001541  55.4971 148.8248 15.08854076 13466,6917.837,95.437,540.768,538.636,0.0
53260.0,STARLINK-4136,PAYLOAD,2022-10-15 14:00:01,15.08823463,0.0001628,53.2158,5.6655,49.8785,166.1018,0.0019301,0.00030549,0.0,0 STARLINK-4136,1 53260U 22086U   22288.58334491  .00030549  00000-0  19301-2 0  9990,2 53260  53.2158   5.6655 0001628  49.8785 166.1018 15.08823463  1304,6917.931,95.439,540.922,538.67,0.0
53260.0,STARLINK-4136,PAYLOAD,2022-10-15 22:00:01,15.08854518,0.0001541999999999,53.2158,4.1677,51.8417,175.7818,-0.0031647,-0.00050323,0.0,0 STARLINK-4136,1 53260U 22086U   22288.91668981 -.00050323  00000-0 -31647-2 0  9992,2 53260  53.2158   4.1677 0001542  51.8417 175.7818 15.08854518  1301,6917.8359999999975,95.437,540.768,538.634,0.0
53260.0,STARLINK-4136,PAYLOAD,2022-10-16 06:00:00,15.08848681,0.000155,53.2159,2.6710000000000003,58.0268,181.1143,-0.0017035999999999,-0.00027305,0.0,0 STARLINK-4136,1 53260U 22086U   22289.25001157 -.00027305  00000-0 -17036-2 0  9996,2 53260  53.2159   2.6710 0001550  58.0268 181.1143 15.08848681 13618,6917.854,95.437,540.7909999999998,538.6469999999998,0.0
53260.0,STARLINK-4136,PAYLOAD,2022-10-16 14:00:01,15.08795011,0.0001666999999999,53.216,1.1762,47.2941,203.4434,0.0024873,0.00039471,0.0,0 STARLINK-4136,1 53260U 22086U   22289.58334491  .00039471  00000-0  24873-2 0  9994,2 53260  53.2160   1.1762 0001667  47.2941 203.4434 15.08795011  1300,6918.018,95.44,541.036,538.73,0.0
53260.0,STARLINK-4136,PAYLOAD,2022-10-16 22:00:00,15.08830963,0.0001546,53.2164,359.6773,48.8691,213.426,-0.00020609,-3.566e-05,0.0,0 STARLINK-4136,1 53260U 22086U   22289.91667824 -.00003566  00000-0 -20609-3 0  9992,2 53260  53.2164 359.6773 0001546  48.8691 213.4260 15.08830963  1306,6917.908,95.438,540.8430000000002,538.7040000000002,0.0
53260.0,STARLINK-4136,PAYLOAD,2022-10-17 06:00:00,15.08838631,0.0001469,53.2163,358.1804,61.9388,212.0017,-0.0012745999999999,-0.00020515,0.0,0 STARLINK-4136,1 53260U 22086U   22290.25001157 -.00020515  00000-0 -12746-2 0  9997,2 53260  53.2163 358.1804 0001469  61.9388 212.0017 15.08838631 13776,6917.885,95.438,540.766,538.7330000000002,0.0
53260.0,STARLINK-4136,PAYLOAD,2022-10-17 14:00:01,15.08817682,0.0001654,53.2164,356.6866,52.2702,233.2866,0.003371,0.00053738,0.0,0 STARLINK-4136,1 53260U 22086U   22290.58334491  .00053738  00000-0  33710-2 0  9998,2 53260  53.2164 356.6866 0001654  52.2702 233.2866 15.08817682  1303,6917.949000000001,95.439,540.9580000000002,538.669,0.0
53260.0,STARLINK-4136,PAYLOAD,2022-10-17 22:00:00,15.08854556,0.000156,53.2166,355.1888,56.4375,240.7077,-0.0021675,-0.00034632,0.0,0 STARLINK-4136,1 53260U 22086U   22290.91667824 -.00034632  00000-0 -21675-2 0  9995,2 53260  53.2166 355.1888 0001560  56.4375 240.7077 15.08854556  1309,6917.8359999999975,95.437,540.78,538.622,0.0
53260.0,STARLINK-4136,PAYLOAD,2022-10-18 06:00:00,15.08940032,0.0001495,53.217,353.6884,60.1914,248.533,-0.018125,-0.00278532,0.0,0 STARLINK-4136,1 53260U 22086U   22291.25001157 -.00278532  00000-0 -18125-1 0  9998,2 53260  53.2170 353.6884 0001495  60.1914 248.5330 15.08940032 13925,6917.575,95.431,540.474,538.405,0.0
53260.0,STARLINK-4136,PAYLOAD,2022-10-18 14:00:01,15.08795074,0.0001659,53.2168,352.1976,51.5972,268.722,0.0031763,0.00050563,0.0,0 STARLINK-4136,1 53260U 22086U   22291.58334491  .00050563  00000-0  31763-2 0  9998,2 53260  53.2168 352.1976 0001659  51.5972 268.7220 15.08795074 13979,6918.018,95.44,541.03,538.735,0.0
53260.0,STARLINK-4136,PAYLOAD,2022-10-18 22:00:00,15.08837439,0.0001473,53.2169,350.6998,55.1684,276.7175,-0.001179,-0.00019001,0.0,0 STARLINK-4136,1 53260U 22086U   22291.91667824 -.00019001  00000-0 -11790-2 0  9996,2 53260  53.2169 350.6998 0001473  55.1684 276.7175 15.08837439  1305,6917.888000000001,95.438,540.7719999999998,538.734,0.0
53260.0,STARLINK-4136,PAYLOAD,2022-10-19 06:00:00,15.08834247,0.0001426,53.2171,349.2035,57.0506,286.4161,-0.00094404,-0.00015278,0.0,0 STARLINK-4136,1 53260U 22086U   22292.25001157 -.00015278  00000-0 -94404-3 0  9991,2 53260  53.2171 349.2035 0001426  57.0506 286.4161 15.08834247 14071,6917.898,95.438,540.749,538.776,0.0
53260.0,STARLINK-4136,PAYLOAD,2022-10-19 14:00:01,15.08803631,0.0001575,53.2169,347.7087,48.8538,306.1987,0.003304,0.00052636,0.0,0 STARLINK-4136,1 53260U 22086U   22292.58334491  .00052636  00000-0  33040-2 0  9992,2 53260  53.2169 347.7087 0001575  48.8538 306.1987 15.08803631  1307,6917.9919999999975,95.44,540.946,538.7669999999998,0.0
53260.0,STARLINK-4136,PAYLOAD,2022-10-19 22:00:00,15.08836862,0.0001476,53.2175,346.2033,53.9903,312.6337,-3.9329e-05,-9.14e-06,0.0,0 STARLINK-4136,1 53260U 22086U   22292.91667824 -.00000914  00000-0 -39329-4 0  9990,2 53260  53.2175 346.2033 0001476  53.9903 312.6337 15.08836862  1305,6917.89,95.438,540.776,538.734,0.0
53260.0,STARLINK-4136,PAYLOAD,2022-10-20 14:00:01,15.08830558,0.0001301,53.2165,343.2187,50.3343,339.401,0.0034610999999999,0.00055213,0.0,0 STARLINK-4136,1 53260U 22086U   22293.58334491  .00055213  00000-0  34611-2 0  9992,2 53260  53.2165 343.2187 0001301  50.3343 339.4010 15.08830558 14278,6917.909000000002,95.438,540.674,538.874,0.0
53260.0,STARLINK-4136,PAYLOAD,2022-10-20 22:00:00,15.08857685,0.0001167,53.2167,341.7208,59.31399999999999,342.0122,-0.001751,-0.0002806,0.0,0 STARLINK-4136,1 53260U 22086U   22293.91667824 -.00028060  00000-0 -17510-2 0  9999,2 53260  53.2167 341.7208 0001167  59.3140 342.0122 15.08857685 14321,6917.826,95.436,540.499,538.884,0.0
53260.0,STARLINK-4136,PAYLOAD,2022-10-21 14:00:01,15.08828488,0.0001409999999999,53.216,338.73,53.4388,11.1012,0.0034766,0.0005546,0.0,0 STARLINK-4136,1 53260U 22086U   22294.58334491  .00055460  00000-0  34766-2 0  9998,2 53260  53.2160 338.7300 0001410  53.4388  11.1012 15.08828488 14425,6917.916,95.438,540.756,538.805,0.0
53260.0,STARLINK-4136,PAYLOAD,2022-10-21 22:00:00,15.08844727,0.0001307,53.2157,337.2329,63.4206,12.7142,-0.00090689,-0.00014694,0.0,0 STARLINK-4136,1 53260U 22086U   22294.91667824 -.00014694  00000-0 -90689-3 0  9997,2 53260  53.2157 337.2329 0001307  63.4206  12.7142 15.08844727  1309,6917.866,95.437,540.635,538.827,0.0
